[{"OBJECT_NAME":"STARLINK-11373 [DTC]","OBJECT_ID":"2024-187J","EPOCH":"2026-03-09T22:16:57.132192","MEAN_MOTION":15.69702992,"ECCENTRICITY":8.379e-5,"INCLINATION":53.16,"RA_OF_ASC_NODE":295.3765,"ARG_OF_PERICENTER":88.4558,"MEAN_ANOMALY":271.6555,"EPHEMERIS_TYPE":0,"CLASSIFICATION_TYPE":"U","NORAD_CAT_ID":61582,"ELEMENT_SET_NO":999,"REV_AT_EPOCH":8078,"BSTAR":-5.598341e-6,"MEAN_MOTION_DOT":-1.266e-5,"MEAN_MOTION_DDOT":0},{"OBJECT_NAME":"OBJECT AC","OBJECT_ID":"2021-022AC","EPOCH":"2026-03-09T23:52:41.913120","MEAN_MOTION":15.70257251,"ECCENTRICITY":0.00077249,"INCLINATION":97.3906,"RA_OF_ASC_NODE":343.806,"ARG_OF_PERICENTER":62.9634,"MEAN_ANOMALY":297.2416,"EPHEMERIS_TYPE":0,"CLASSIFICATION_TYPE":"U","NORAD_CAT_ID":47958,"ELEMENT_SET_NO":999,"REV_AT_EPOCH":27427,"BSTAR":0.0010525747,"MEAN_MOTION_DOT":0.00129469,"MEAN_MOTION_DDOT":0}]
